[{"OBJECT_NAME":"HAWK-7A","OBJECT_ID":"2023-054P","EPOCH":"2026-03-09T16:32:19.096224","MEAN_MOTION":15.26207271,"ECCENTRICITY":0.0004249,"INCLINATION":97.2827,"RA_OF_ASC_NODE":318.5579,"ARG_OF_PERICENTER":51.2619,"MEAN_ANOMALY":308.8999,"EPHEMERIS_TYPE":0,"CLASSIFICATION_TYPE":"U","NORAD_CAT_ID":56191,"ELEMENT_SET_NO":999,"REV_AT_EPOCH":16184,"BSTAR":0.00030248406,"MEAN_MOTION_DOT":7.758e-5,"MEAN_MOTION_DDOT":0},{"OBJECT_NAME":"STARLINK-32595","OBJECT_ID":"2024-216F","EPOCH":"2026-03-09T23:00:42.687360","MEAN_MOTION":15.27582743,"ECCENTRICITY":0.00016439,"INCLINATION":42.9992,"RA_OF_ASC_NODE":261.9959,"ARG_OF_PERICENTER":270.9756,"MEAN_ANOMALY":89.0908,"EPHEMERIS_TYPE":0,"CLASSIFICATION_TYPE":"U","NORAD_CAT_ID":62037,"ELEMENT_SET_NO":999,"REV_AT_EPOCH":7384,"BSTAR":0.00073115706,"MEAN_MOTION_DOT":0.00019914,"MEAN_MOTION_DDOT":0}]
